HAWK-11C                
1 62381U 24247E   26068.51221537  .00009223  00000+0  33290-3 0  9992
2 62381  45.0045 114.8762 0005900 329.7040  30.3502 15.28848020 67743
STARLINK-34365          
1 64671U 25139H   26068.44965946  .00026197  00000+0  89298-3 0  9996
2 64671  53.1567 128.4161 0001097  93.2285 266.8841 15.30218259 40300
